const satelliteFixtures = [
    {
        id: 1,
        tle: `NOAA 19
        1 33591U 09005A   21114.92718975  .00000061  00000-0  58702-4 0  9995
        2 33591  99.1878 134.2962 0012925 283.3983  76.5747 14.12462493629107`
    },
    {
        id: 2,
        tle: `METEOR-M 2
        1 40069U 14037A   21114.83909284 -.00000038  00000-0  16976-5 0  9992
        2 40069  98.4665 145.9973 0007060  96.3993 263.7992 14.20683276352422`
    },
    {
        id: 3,
        tle: `ISS (ZARYA)
        1 25544U 98067A   17206.18396726  .00001961  00000-0  36771-4 0  9993
        2 25544  51.6400 208.9163 0006317  69.9862  25.2906 15.54225995 67660`
    },
    {
        id: 4,
        tle: `ELEKTRO-L 2
        1 41105U 15074A   21114.86678786 -.00000115  00000-0  00000-0 0  9991
        2 41105   1.9504  93.0917 0000669  21.1496  36.4879  1.00271959 19679`
    },
    {
        id: 5,
        tle: `NOAA 16 [-]             
        1 26536U 00055A   21114.84987166  .00000007  00000-0  26773-4 0  9996
        2 26536  98.6907 181.8481 0009390 280.5876  79.4239 14.13276378358227`
    },
];

export default satelliteFixtures;
